{
  "type": "FeatureCollection",
  "features": [
    {
      "type": "Feature",
      "properties": {
        "norad_id": 30162,
        "name": "FENGYUN 1C DEB",
        "group": "fengyun-1c-debris",
        "lat": 80.38947101295093,
        "lon": -38.653678542352125,
        "alt_km": 1076.1112644747636,
        "timestamp": "2025-12-12T05:47:29.045310+00:00",
        "meta_object_name": "FENGYUN 1C DEB",
        "meta_object_id": "1999-025TT",
        "meta_epoch": "2025-12-11T02:53:35.912256",
        "meta_mean_motion": 13.53386441,
        "meta_eccentricity": 0.03136616,
        "meta_inclination": 99.4884,
        "meta_ra_of_asc_node": 41.2554,
        "meta_arg_of_pericenter": 353.6944,
        "meta_mean_anomaly": 33.5187,
        "meta_ephemeris_type": 0,
        "meta_classification_type": "U",
        "meta_norad_cat_id": 30162,
        "meta_element_set_no": 999,
        "meta_rev_at_epoch": 92639,
        "meta_bstar": 0.0032389249,
        "meta_mean_motion_dot": 2.926e-05,
        "meta_mean_motion_ddot": 0,
        "tle_line1": "1 30162U 99025TT  25345.12055454  .00002926  00000+0  32389-2 0  9997",
        "tle_line2": "2 30162  99.4884  41.2554 0313661 353.6944  33.5187 13.53386441926395"
      },
      "geometry": {
        "type": "Point",
        "coordinates": [
          -38.653678542352125,
          80.38947101295093
        ]
      }
    },
    {
      "type": "Feature",
      "properties": {
        "norad_id": 30163,
        "name": "FENGYUN 1C DEB",
        "group": "fengyun-1c-debris",
        "lat": 59.35881355709391,
        "lon": -63.6181467547657,
        "alt_km": 1214.2465871825525,
        "timestamp": "2025-12-12T05:47:29.045320+00:00",
        "meta_object_name": "FENGYUN 1C DEB",
        "meta_object_id": "1999-025TU",
        "meta_epoch": "2025-12-11T06:11:09.544704",
        "meta_mean_motion": 13.3877469,
        "meta_eccentricity": 0.03734486,
        "meta_inclination": 98.7005,
        "meta_ra_of_asc_node": 100.5563,
        "meta_arg_of_pericenter": 236.1955,
        "meta_mean_anomaly": 189.3103,
        "meta_ephemeris_type": 0,
        "meta_classification_type": "U",
        "meta_norad_cat_id": 30163,
        "meta_element_set_no": 999,
        "meta_rev_at_epoch": 91925,
        "meta_bstar": 0.0035385175,
        "meta_mean_motion_dot": 2.796e-05,
        "meta_mean_motion_ddot": 0,
        "tle_line1": "1 30163U 99025TU  25345.25774936  .00002796  00000+0  35385-2 0  9999",
        "tle_line2": "2 30163  98.7005 100.5563 0373448 236.1955 189.3103 13.38774690919253"
      },
      "geometry": {
        "type": "Point",
        "coordinates": [
          -63.6181467547657,
          59.35881355709391
        ]
      }
    },
    {
      "type": "Feature",
      "properties": {
        "norad_id": 30167,
        "name": "FENGYUN 1C DEB",
        "group": "fengyun-1c-debris",
        "lat": -55.16958202694263,
        "lon": -121.73534454530905,
        "alt_km": 718.512608507207,
        "timestamp": "2025-12-12T05:47:29.045331+00:00",
        "meta_object_name": "FENGYUN 1C DEB",
        "meta_object_id": "1999-025TY",
        "meta_epoch": "2025-12-11T17:48:16.213248",
        "meta_mean_motion": 14.48533275,
        "meta_eccentricity": 0.01441302,
        "meta_inclination": 98.9675,
        "meta_ra_of_asc_node": 70.8515,
        "meta_arg_of_pericenter": 157.4553,
        "meta_mean_anomaly": 354.0312,
        "meta_ephemeris_type": 0,
        "meta_classification_type": "U",
        "meta_norad_cat_id": 30167,
        "meta_element_set_no": 999,
        "meta_rev_at_epoch": 99344,
        "meta_bstar": 0.00086940058,
        "meta_mean_motion_dot": 3.67e-05,
        "meta_mean_motion_ddot": 0,
        "tle_line1": "1 30167U 99025TY  25345.74185432  .00003670  00000+0  86940-3 0  9990",
        "tle_line2": "2 30167  98.9675  70.8515 0144130 157.4553 354.0312 14.48533275993441"
      },
      "geometry": {
        "type": "Point",
        "coordinates": [
          -121.73534454530905,
          -55.16958202694263
        ]
      }
    },
    {
      "type": "Feature",
      "properties": {
        "norad_id": 30168,
        "name": "FENGYUN 1C DEB",
        "group": "fengyun-1c-debris",
        "lat": -61.725752056194686,
        "lon": 72.63354345585931,
        "alt_km": 779.5231749018803,
        "timestamp": "2025-12-12T05:47:29.045341+00:00",
        "meta_object_name": "FENGYUN 1C DEB",
        "meta_object_id": "1999-025TZ",
        "meta_epoch": "2025-12-11T03:38:14.949024",
        "meta_mean_motion": 14.52820251,
        "meta_eccentricity": 0.01007288,
        "meta_inclination": 97.3898,
        "meta_ra_of_asc_node": 57.71,
        "meta_arg_of_pericenter": 158.9129,
        "meta_mean_anomaly": 201.6268,
        "meta_ephemeris_type": 0,
        "meta_classification_type": "U",
        "meta_norad_cat_id": 30168,
        "meta_element_set_no": 999,
        "meta_rev_at_epoch": 98288,
        "meta_bstar": 0.0032982303,
        "meta_mean_motion_dot": 0.00014479,
        "meta_mean_motion_ddot": 0,
        "tle_line1": "1 30168U 99025TZ  25345.15156191  .00014479  00000+0  32982-2 0  9991",
        "tle_line2": "2 30168  97.3898  57.7100 0100728 158.9129 201.6268 14.52820251982887"
      },
      "geometry": {
        "type": "Point",
        "coordinates": [
          72.63354345585931,
          -61.725752056194686
        ]
      }
    },
    {
      "type": "Feature",
      "properties": {
        "norad_id": 30169,
        "name": "FENGYUN 1C DEB",
        "group": "fengyun-1c-debris",
        "lat": 73.25468896541155,
        "lon": -95.1303307725233,
        "alt_km": 774.6553331486539,
        "timestamp": "2025-12-12T05:47:29.045351+00:00",
        "meta_object_name": "FENGYUN 1C DEB",
        "meta_object_id": "1999-025UA",
        "meta_epoch": "2025-12-12T00:55:27.156000",
        "meta_mean_motion": 14.58053241,
        "meta_eccentricity": 0.02131939,
        "meta_inclination": 98.3362,
        "meta_ra_of_asc_node": 55.501,
        "meta_arg_of_pericenter": 229.2198,
        "meta_mean_anomaly": 253.4985,
        "meta_ephemeris_type": 0,
        "meta_classification_type": "U",
        "meta_norad_cat_id": 30169,
        "meta_element_set_no": 999,
        "meta_rev_at_epoch": 97713,
        "meta_bstar": 0.0035404883,
        "meta_mean_motion_dot": 0.0002231,
        "meta_mean_motion_ddot": 0,
        "tle_line1": "1 30169U 99025UA  25346.03850875  .00022310  00000+0  35405-2 0  9996",
        "tle_line2": "2 30169  98.3362  55.5010 0213193 229.2198 253.4985 14.58053241977136"
      },
      "geometry": {
        "type": "Point",
        "coordinates": [
          -95.1303307725233,
          73.25468896541155
        ]
      }
    },
    {
      "type": "Feature",
      "properties": {
        "norad_id": 30170,
        "name": "FENGYUN 1C DEB",
        "group": "fengyun-1c-debris",
        "lat": -37.13590859935385,
        "lon": 146.5156414139872,
        "alt_km": 869.4785242115704,
        "timestamp": "2025-12-12T05:47:29.045362+00:00",
        "meta_object_name": "FENGYUN 1C DEB",
        "meta_object_id": "1999-025UB",
        "meta_epoch": "2025-12-11T22:01:48.432288",
        "meta_mean_motion": 14.00306357,
        "meta_eccentricity": 0.00769537,
        "meta_inclination": 98.8488,
        "meta_ra_of_asc_node": 332.9775,
        "meta_arg_of_pericenter": 276.9596,
        "meta_mean_anomaly": 112.0248,
        "meta_ephemeris_type": 0,
        "meta_classification_type": "U",
        "meta_norad_cat_id": 30170,
        "meta_element_set_no": 999,
        "meta_rev_at_epoch": 96404,
        "meta_bstar": 0.00068760586,
        "meta_mean_motion_dot": 1e-05,
        "meta_mean_motion_ddot": 0,
        "tle_line1": "1 30170U 99025UB  25345.91792167  .00001000  00000+0  68761-3 0  9998",
        "tle_line2": "2 30170  98.8488 332.9775 0076953 276.9596 112.0248 14.00306357964048"
      },
      "geometry": {
        "type": "Point",
        "coordinates": [
          146.5156414139872,
          -37.13590859935385
        ]
      }
    },
    {
      "type": "Feature",
      "properties": {
        "norad_id": 30171,
        "name": "FENGYUN 1C DEB",
        "group": "fengyun-1c-debris",
        "lat": 80.97010251785699,
        "lon": 135.6277367730017,
        "alt_km": 1031.527250985744,
        "timestamp": "2025-12-12T05:47:29.045372+00:00",
        "meta_object_name": "FENGYUN 1C DEB",
        "meta_object_id": "1999-025UC",
        "meta_epoch": "2025-12-12T00:12:39.543264",
        "meta_mean_motion": 13.96857395,
        "meta_eccentricity": 0.01844648,
        "meta_inclination": 98.3977,
        "meta_ra_of_asc_node": 203.7748,
        "meta_arg_of_pericenter": 269.4485,
        "meta_mean_anomaly": 88.5541,
        "meta_ephemeris_type": 0,
        "meta_classification_type": "U",
        "meta_norad_cat_id": 30171,
        "meta_element_set_no": 999,
        "meta_rev_at_epoch": 96260,
        "meta_bstar": 0.00031062407,
        "meta_mean_motion_dot": 4.58e-06,
        "meta_mean_motion_ddot": 0,
        "tle_line1": "1 30171U 99025UC  25346.00879101  .00000458  00000+0  31062-3 0  9994",
        "tle_line2": "2 30171  98.3977 203.7748 0184464 269.4485  88.5541 13.96857395962603"
      },
      "geometry": {
        "type": "Point",
        "coordinates": [
          135.6277367730017,
          80.97010251785699
        ]
      }
    }
  ]
}